{"type": "FeatureCollection", "features": [ {"type": "Feature", "properties": {"norad_id": 66738, "name": "FLOCK 4H-35", "group": "last-30-days", "lat": 77.78695761293528, "lon": -69.55393728404903, "alt_km": 502.21503679334546, "timestamp": "2025-12-27T18:38:02.203486+00:00", "meta": {"OBJECT_NAME": "FLOCK 4H-35", "OBJECT_ID": "2025-276CA", "EPOCH": "2025-12-27T11:52:10.675200", "MEAN_MOTION": 15.18306633, "ECCENTRICITY": 0.0002707, "INCLINATION": 97.4395, "RA_OF_ASC_NODE": 73.0332, "ARG_OF_PERICENTER": 139.676, "MEAN_ANOMALY": 220.4675, "EPHEMERIS_TYPE": 0, "CLASSIFICATION_TYPE": "U", "NORAD_CAT_ID": 66738, "ELEMENT_SET_NO": 999, "REV_AT_EPOCH": 365, "BSTAR": 0.00056444, "MEAN_MOTION_DOT": 0.00011521, "MEAN_MOTION_DDOT": 0}, "tle": {"line1": "1 66738U 25276CA  25361.49456800  .00011521  00000+0  56444-3 0  9990", "line2": "2 66738  97.4395  73.0332 0002707 139.6760 220.4675 15.18306633  3651"}}, "geometry": {"type": "Point", "coordinates": [-69.55393728404903, 77.78695761293528]}}, {"type": "Feature", "properties": {"norad_id": 66739, "name": "FLOCK 4H-36", "group": "last-30-days", "lat": 71.61289280835788, "lon": 50.154873307583344, "alt_km": 505.02038827950673, "timestamp": "2025-12-27T18:38:02.203497+00:00", "meta": {"OBJECT_NAME": "FLOCK 4H-36", "OBJECT_ID": "2025-276CB", "EPOCH": "2025-12-27T11:59:05.748576", "MEAN_MOTION": 15.18057778, "ECCENTRICITY": 0.0002747, "INCLINATION": 97.4444, "RA_OF_ASC_NODE": 73.0463, "ARG_OF_PERICENTER": 170.6154, "MEAN_ANOMALY": 189.5131, "EPHEMERIS_TYPE": 0, "CLASSIFICATION_TYPE": "U", "NORAD_CAT_ID": 66739, "ELEMENT_SET_NO": 999, "REV_AT_EPOCH": 436, "BSTAR": 0.00053184, "MEAN_MOTION_DOT": 0.00010773, "MEAN_MOTION_DDOT": 0}, "tle": {"line1": "1 66739U 25276CB  25361.49937209  .00010773  00000+0  53184-3 0  9994", "line2": "2 66739  97.4444  73.0463 0002747 170.6154 189.5131 15.18057778  4362"}}, "geometry": {"type": "Point", "coordinates": [50.154873307583344, 71.61289280835788]}}, {"type": "Feature", "properties": {"norad_id": 66740, "name": "TRANSPORTER-15CC", "group": "last-30-days", "lat": 41.7286200757934, "lon": 66.60092966891932, "alt_km": 510.81949974324107, "timestamp": "2025-12-27T18:38:02.203509+00:00", "meta": {"OBJECT_NAME": "TRANSPORTER-15CC", "OBJECT_ID": "2025-276CC", "EPOCH": "2025-12-27T10:32:14.762400", "MEAN_MOTION": 15.17785959, "ECCENTRICITY": 0.000237, "INCLINATION": 97.4405, "RA_OF_ASC_NODE": 72.9627, "ARG_OF_PERICENTER": 214.4588, "MEAN_ANOMALY": 145.6492, "EPHEMERIS_TYPE": 0, "CLASSIFICATION_TYPE": "U", "NORAD_CAT_ID": 66740, "ELEMENT_SET_NO": 999, "REV_AT_EPOCH": 435, "BSTAR": 0.00054132, "MEAN_MOTION_DOT": 0.00010881, "MEAN_MOTION_DDOT": 0}, "tle": {"line1": "1 66740U 25276CC  25361.43905975  .00010881  00000+0  54132-3 0  9999", "line2": "2 66740  97.4405  72.9627 0002370 214.4588 145.6492 15.17785959  4351"}}, "geometry": {"type": "Point", "coordinates": [66.60092966891932, 41.7286200757934]}}, {"type": "Feature", "properties": {"norad_id": 66741, "name": "TRANSPORTER-15CD", "group": "last-30-days", "lat": 34.673879164562145, "lon": 68.09592377718364, "alt_km": 511.58013227092124, "timestamp": "2025-12-27T18:38:02.203521+00:00", "meta": {"OBJECT_NAME": "TRANSPORTER-15CD", "OBJECT_ID": "2025-276CD", "EPOCH": "2025-12-27T10:34:05.556576", "MEAN_MOTION": 15.17663157, "ECCENTRICITY": 0.0001325, "INCLINATION": 97.4403, "RA_OF_ASC_NODE": 72.9524, "ARG_OF_PERICENTER": 202.1663, "MEAN_ANOMALY": 157.9514, "EPHEMERIS_TYPE": 0, "CLASSIFICATION_TYPE": "U", "NORAD_CAT_ID": 66741, "ELEMENT_SET_NO": 999, "REV_AT_EPOCH": 435, "BSTAR": 0.00022045, "MEAN_MOTION_DOT": 4.372e-05, "MEAN_MOTION_DDOT": 0}, "tle": {"line1": "1 66741U 25276CD  25361.44034209  .00004372  00000+0  22045-3 0  9990", "line2": "2 66741  97.4403  72.9524 0001325 202.1663 157.9514 15.17663157  4359"}}, "geometry": {"type": "Point", "coordinates": [68.09592377718364, 34.673879164562145]}}, {"type": "Feature", "properties": {"norad_id": 66742, "name": "TRANSPORTER-15CE", "group": "last-30-days", "lat": 44.36457057208884, "lon": 65.9415559900735, "alt_km": 509.80943569867213, "timestamp": "2025-12-27T18:38:02.203531+00:00", "meta": {"OBJECT_NAME": "TRANSPORTER-15CE", "OBJECT_ID": "2025-276CE", "EPOCH": "2025-12-27T10:31:31.958976", "MEAN_MOTION": 15.17758155, "ECCENTRICITY": 0.0002124, "INCLINATION": 97.4396, "RA_OF_ASC_NODE": 72.9523, "ARG_OF_PERICENTER": 174.9003, "MEAN_ANOMALY": 185.2253, "EPHEMERIS_TYPE": 0, "CLASSIFICATION_TYPE": "U", "NORAD_CAT_ID": 66742, "ELEMENT_SET_NO": 999, "REV_AT_EPOCH": 435, "BSTAR": 0.00054478, "MEAN_MOTION_DOT": 0.00010942, "MEAN_MOTION_DDOT": 0}, "tle": {"line1": "1 66742U 25276CE  25361.43856434  .00010942  00000+0  54478-3 0  9997", "line2": "2 66742  97.4396  72.9523 0002124 174.9003 185.2253 15.17758155  4359"}}, "geometry": {"type": "Point", "coordinates": [65.9415559900735, 44.36457057208884]}}, {"type": "Feature", "properties": {"norad_id": 66743, "name": "TRANSPORTER-15CF", "group": "last-30-days", "lat": 21.997278272746055, "lon": 70.24856926675166, "alt_km": 513.6172342465352, "timestamp": "2025-12-27T18:38:02.203543+00:00", "meta": {"OBJECT_NAME": "TRANSPORTER-15CF", "OBJECT_ID": "2025-276CF", "EPOCH": "2025-12-27T10:37:26.635296", "MEAN_MOTION": 15.17578403, "ECCENTRICITY": 9.24e-05, "INCLINATION": 97.4396, "RA_OF_ASC_NODE": 72.9466, "ARG_OF_PERICENTER": 197.3859, "MEAN_ANOMALY": 162.7344, "EPHEMERIS_TYPE": 0, "CLASSIFICATION_TYPE": "U", "NORAD_CAT_ID": 66743, "ELEMENT_SET_NO": 999, "REV_AT_EPOCH": 435, "BSTAR": 0.00037229, "MEAN_MOTION_DOT": 7.414e-05, "MEAN_MOTION_DDOT": 0}, "tle": {"line1": "1 66743U 25276CF  25361.44266939  .00007414  00000+0  37229-3 0  9999", "line2": "2 66743  97.4396  72.9466 0000924 197.3859 162.7344 15.17578403  4357"}}, "geometry": {"type": "Point", "coordinates": [70.24856926675166, 21.997278272746055]}}, {"type": "Feature", "properties": {"norad_id": 66744, "name": "TRANSPORTER-15CG", "group": "last-30-days", "lat": 56.16958216974735, "lon": 62.085360362545224, "alt_km": 518.5986243088455, "timestamp": "2025-12-27T18:38:02.203553+00:00", "meta": {"OBJECT_NAME": "TRANSPORTER-15CG", "OBJECT_ID": "2025-276CG", "EPOCH": "2025-12-27T10:28:49.401696", "MEAN_MOTION": 15.19399401, "ECCENTRICITY": 0.002448, "INCLINATION": 97.3864, "RA_OF_ASC_NODE": 72.9137, "ARG_OF_PERICENTER": 223.3747, "MEAN_ANOMALY": 136.5562, "EPHEMERIS_TYPE": 0, "CLASSIFICATION_TYPE": "U", "NORAD_CAT_ID": 66744, "ELEMENT_SET_NO": 999, "REV_AT_EPOCH": 435, "BSTAR": 0.00065201, "MEAN_MOTION_DOT": 0.00013857, "MEAN_MOTION_DDOT": 0}, "tle": {"line1": "1 66744U 25276CG  25361.43668289  .00013857  00000+0  65201-3 0  9992", "line2": "2 66744  97.3864  72.9137 0024480 223.3747 136.5562 15.19399401  4353"}}, "geometry": {"type": "Point", "coordinates": [62.085360362545224, 56.16958216974735]}}, {"type": "Feature", "properties": {"norad_id": 66745, "name": "TRANSPORTER-15CH", "group": "last-30-days", "lat": 17.824432181722194, "lon": 70.86805254203252, "alt_km": 515.0866501668743, "timestamp": "2025-12-27T18:38:02.203563+00:00", "meta": {"OBJECT_NAME": "TRANSPORTER-15CH", "OBJECT_ID": "2025-276CH", "EPOCH": "2025-12-27T12:13:27.746688", "MEAN_MOTION": 15.17423395, "ECCENTRICITY": 0.0001448, "INCLINATION": 97.4404, "RA_OF_ASC_NODE": 73.014, "ARG_OF_PERICENTER": 183.8852, "MEAN_ANOMALY": 176.2371, "EPHEMERIS_TYPE": 0, "CLASSIFICATION_TYPE": "U", "NORAD_CAT_ID": 66745, "ELEMENT_SET_NO": 999, "REV_AT_EPOCH": 436, "BSTAR": 0.00016223, "MEAN_MOTION_DOT": 3.178e-05, "MEAN_MOTION_DDOT": 0}, "tle": {"line1": "1 66745U 25276CH  25361.50934892  .00003178  00000+0  16223-3 0  9992", "line2": "2 66745  97.4404  73.0140 0001448 183.8852 176.2371 15.17423395  4365"}}, "geometry": {"type": "Point", "coordinates": [70.86805254203252, 17.824432181722194]}}, {"type": "Feature", "properties": {"norad_id": 66746, "name": "TRANSPORTER-15CJ", "group": "last-30-days", "lat": 47.527577882957296, "lon": 65.160386117542, "alt_km": 510.21359595290414, "timestamp": "2025-12-27T18:38:02.203573+00:00", "meta": {"OBJECT_NAME": "TRANSPORTER-15CJ", "OBJECT_ID": "2025-276CJ", "EPOCH": "2025-12-27T10:31:13.268928", "MEAN_MOTION": 15.19511797, "ECCENTRICITY": 0.001354, "INCLINATION": 97.383, "RA_OF_ASC_NODE": 72.9727, "ARG_OF_PERICENTER": 188.9553, "MEAN_ANOMALY": 171.1442, "EPHEMERIS_TYPE": 0, "CLASSIFICATION_TYPE": "U", "NORAD_CAT_ID": 66746, "ELEMENT_SET_NO": 999, "REV_AT_EPOCH": 435, "BSTAR": 0.00089342, "MEAN_MOTION_DOT": 0.00018984, "MEAN_MOTION_DDOT": 0}, "tle": {"line1": "1 66746U 25276CJ  25361.43834802  .00018984  00000+0  89342-3 0  9998", "line2": "2 66746  97.3830  72.9727 0013540 188.9553 171.1442 15.19511797  4355"}}, "geometry": {"type": "Point", "coordinates": [65.160386117542, 47.527577882957296]}}, {"type": "Feature", "properties": {"norad_id": 66747, "name": "W-SERIES 5", "group": "last-30-days", "lat": 30.42943465153154, "lon": 68.88091489281736, "alt_km": 512.7489014988314, "timestamp": "2025-12-27T18:38:02.203585+00:00", "meta": {"OBJECT_NAME": "W-SERIES 5", "OBJECT_ID": "2025-276CK", "EPOCH": "2025-12-27T10:35:11.827968", "MEAN_MOTION": 15.17579475, "ECCENTRICITY": 0.0001808, "INCLINATION": 97.4404, "RA_OF_ASC_NODE": 72.954, "ARG_OF_PERICENTER": 186.2645, "MEAN_ANOMALY": 173.8567, "EPHEMERIS_TYPE": 0, "CLASSIFICATION_TYPE": "U", "NORAD_CAT_ID": 66747, "ELEMENT_SET_NO": 999, "REV_AT_EPOCH": 435, "BSTAR": 0.00029278, "MEAN_MOTION_DOT": 5.816e-05, "MEAN_MOTION_DDOT": 0}, "tle": {"line1": "1 66747U 25276CK  25361.44110912  .00005816  00000+0  29278-3 0  9991", "line2": "2 66747  97.4404  72.9540 0001808 186.2645 173.8567 15.17579475  4356"}}, "geometry": {"type": "Point", "coordinates": [68.88091489281736, 30.42943465153154]}}]}